1998-067RC              
1 45259U 98067RC  20177.54439329  .00004103  00000-0  75938-4 0  9995
2 45259  51.6422 305.7384 0007439  32.7613 327.3837 15.51458398 19767
CRYOCUBE                
1 45260U 98067RD  20177.59715481  .00004121  00000-0  75892-4 0  9997
2 45260  51.6422 305.3418 0008186  31.7839 328.3643 15.51588639 19782
AZTECHSAT-1             
1 45261U 98067RE  20177.58396804  .00004973  00000-0  88953-4 0  9998
2 45261  51.6422 305.2539 0007908  31.9681 328.1787 15.51916165 19779
RADSAT-U                
1 45262U 98067RF  20177.55266423  .00003029  00000-0  58710-4 0  9998
2 45262  51.6433 305.7973 0007385  67.5413 292.6358 15.51156128 19770
QARMAN                  
1 45263U 98067RG  20177.62284423  .00004257  00000-0  79035-4 0  9994
2 45263  51.6423 305.5113 0007426  29.9193 330.2219 15.51256375 19801
SORTIE                  
1 45264U 98067RH  20177.58598081  .00001957  00000-0  41513-4 0  9992
2 45264  51.6431 306.0175 0007973  39.9143 320.2431 15.50567126 19766
ICS-EF (ISS DEB)        
1 45265U 98067RJ  20177.57333456  .00001039  00000-0  26394-4 0  9996
2 45265  51.6443 306.6745 0005847  42.6068 317.5374 15.49779615 19439
SOYUZ-MS 16             
1 45476U 20023A   20177.54743984  .00000643  00000-0  19557-4 0  9998
2 45476  51.6448 307.0852 0002519  82.7533 354.3691 15.49459678233317
