<?xml version="1.0" encoding="UTF-8"?>
<ndm xmlns:xsi="https://www.w3.org/2001/XMLSchema-instance" xsi:noNamespaceSchemaLocation="https://sanaregistry.org/r/ndmxml/ndmxml-1.0-master.xsd">
<omm id="CCSDS_OMM_VERS" version="2.0">
<header><CREATION_DATE/><ORIGINATOR/></header><body><segment><metadata><OBJECT_NAME>1998-067RC</OBJECT_NAME><OBJECT_ID>1998-067RC</OBJECT_ID><CENTER_NAME>EARTH</CENTER_NAME><REF_FRAME>TEME</REF_FRAME><TIME_SYSTEM>UTC</TIME_SYSTEM><MEAN_ELEMENT_THEORY>SGP4</MEAN_ELEMENT_THEORY></metadata><data><meanElements><EPOCH>2020-06-25T13:03:55.580256</EPOCH><MEAN_MOTION>15.51458398</MEAN_MOTION><ECCENTRICITY>.0007439</ECCENTRICITY><INCLINATION>51.6422</INCLINATION><RA_OF_ASC_NODE>305.7384</RA_OF_ASC_NODE><ARG_OF_PERICENTER>32.7613</ARG_OF_PERICENTER><MEAN_ANOMALY>327.3837</MEAN_ANOMALY></meanElements><tleParameters><EPHEMERIS_TYPE>0</EPHEMERIS_TYPE><CLASSIFICATION_TYPE>U</CLASSIFICATION_TYPE><NORAD_CAT_ID>45259</NORAD_CAT_ID><ELEMENT_SET_NO>999</ELEMENT_SET_NO><REV_AT_EPOCH>1976</REV_AT_EPOCH><BSTAR>.75938E-4</BSTAR><MEAN_MOTION_DOT>4.103E-5</MEAN_MOTION_DOT><MEAN_MOTION_DDOT>0</MEAN_MOTION_DDOT></tleParameters></data></segment></body></omm>
<omm id="CCSDS_OMM_VERS" version="2.0">
<header><CREATION_DATE/><ORIGINATOR/></header><body><segment><metadata><OBJECT_NAME>CRYOCUBE</OBJECT_NAME><OBJECT_ID>1998-067RD</OBJECT_ID><CENTER_NAME>EARTH</CENTER_NAME><REF_FRAME>TEME</REF_FRAME><TIME_SYSTEM>UTC</TIME_SYSTEM><MEAN_ELEMENT_THEORY>SGP4</MEAN_ELEMENT_THEORY></metadata><data><meanElements><EPOCH>2020-06-25T14:19:54.175584</EPOCH><MEAN_MOTION>15.51588639</MEAN_MOTION><ECCENTRICITY>.0008186</ECCENTRICITY><INCLINATION>51.6422</INCLINATION><RA_OF_ASC_NODE>305.3418</RA_OF_ASC_NODE><ARG_OF_PERICENTER>31.7839</ARG_OF_PERICENTER><MEAN_ANOMALY>328.3643</MEAN_ANOMALY></meanElements><tleParameters><EPHEMERIS_TYPE>0</EPHEMERIS_TYPE><CLASSIFICATION_TYPE>U</CLASSIFICATION_TYPE><NORAD_CAT_ID>45260</NORAD_CAT_ID><ELEMENT_SET_NO>999</ELEMENT_SET_NO><REV_AT_EPOCH>1978</REV_AT_EPOCH><BSTAR>.75892E-4</BSTAR><MEAN_MOTION_DOT>4.121E-5</MEAN_MOTION_DOT><MEAN_MOTION_DDOT>0</MEAN_MOTION_DDOT></tleParameters></data></segment></body></omm>
<omm id="CCSDS_OMM_VERS" version="2.0">
<header><CREATION_DATE/><ORIGINATOR/></header><body><segment><metadata><OBJECT_NAME>AZTECHSAT-1</OBJECT_NAME><OBJECT_ID>1998-067RE</OBJECT_ID><CENTER_NAME>EARTH</CENTER_NAME><REF_FRAME>TEME</REF_FRAME><TIME_SYSTEM>UTC</TIME_SYSTEM><MEAN_ELEMENT_THEORY>SGP4</MEAN_ELEMENT_THEORY></metadata><data><meanElements><EPOCH>2020-06-25T14:00:54.838656</EPOCH><MEAN_MOTION>15.51916165</MEAN_MOTION><ECCENTRICITY>.0007908</ECCENTRICITY><INCLINATION>51.6422</INCLINATION><RA_OF_ASC_NODE>305.2539</RA_OF_ASC_NODE><ARG_OF_PERICENTER>31.9681</ARG_OF_PERICENTER><MEAN_ANOMALY>328.1787</MEAN_ANOMALY></meanElements><tleParameters><EPHEMERIS_TYPE>0</EPHEMERIS_TYPE><CLASSIFICATION_TYPE>U</CLASSIFICATION_TYPE><NORAD_CAT_ID>45261</NORAD_CAT_ID><ELEMENT_SET_NO>999</ELEMENT_SET_NO><REV_AT_EPOCH>1977</REV_AT_EPOCH><BSTAR>.88953E-4</BSTAR><MEAN_MOTION_DOT>4.973E-5</MEAN_MOTION_DOT><MEAN_MOTION_DDOT>0</MEAN_MOTION_DDOT></tleParameters></data></segment></body></omm>
<omm id="CCSDS_OMM_VERS" version="2.0">
<header><CREATION_DATE/><ORIGINATOR/></header><body><segment><metadata><OBJECT_NAME>RADSAT-U</OBJECT_NAME><OBJECT_ID>1998-067RF</OBJECT_ID><CENTER_NAME>EARTH</CENTER_NAME><REF_FRAME>TEME</REF_FRAME><TIME_SYSTEM>UTC</TIME_SYSTEM><MEAN_ELEMENT_THEORY>SGP4</MEAN_ELEMENT_THEORY></metadata><data><meanElements><EPOCH>2020-06-25T13:15:50.189472</EPOCH><MEAN_MOTION>15.51156128</MEAN_MOTION><ECCENTRICITY>.0007385</ECCENTRICITY><INCLINATION>51.6433</INCLINATION><RA_OF_ASC_NODE>305.7973</RA_OF_ASC_NODE><ARG_OF_PERICENTER>67.5413</ARG_OF_PERICENTER><MEAN_ANOMALY>292.6358</MEAN_ANOMALY></meanElements><tleParameters><EPHEMERIS_TYPE>0</EPHEMERIS_TYPE><CLASSIFICATION_TYPE>U</CLASSIFICATION_TYPE><NORAD_CAT_ID>45262</NORAD_CAT_ID><ELEMENT_SET_NO>999</ELEMENT_SET_NO><REV_AT_EPOCH>1977</REV_AT_EPOCH><BSTAR>.58710E-4</BSTAR><MEAN_MOTION_DOT>3.029E-5</MEAN_MOTION_DOT><MEAN_MOTION_DDOT>0</MEAN_MOTION_DDOT></tleParameters></data></segment></body></omm>
<omm id="CCSDS_OMM_VERS" version="2.0">
<header><CREATION_DATE/><ORIGINATOR/></header><body><segment><metadata><OBJECT_NAME>QARMAN</OBJECT_NAME><OBJECT_ID>1998-067RG</OBJECT_ID><CENTER_NAME>EARTH</CENTER_NAME><REF_FRAME>TEME</REF_FRAME><TIME_SYSTEM>UTC</TIME_SYSTEM><MEAN_ELEMENT_THEORY>SGP4</MEAN_ELEMENT_THEORY></metadata><data><meanElements><EPOCH>2020-06-25T14:56:53.741472</EPOCH><MEAN_MOTION>15.51256375</MEAN_MOTION><ECCENTRICITY>.0007426</ECCENTRICITY><INCLINATION>51.6423</INCLINATION><RA_OF_ASC_NODE>305.5113</RA_OF_ASC_NODE><ARG_OF_PERICENTER>29.9193</ARG_OF_PERICENTER><MEAN_ANOMALY>330.2219</MEAN_ANOMALY></meanElements><tleParameters><EPHEMERIS_TYPE>0</EPHEMERIS_TYPE><CLASSIFICATION_TYPE>U</CLASSIFICATION_TYPE><NORAD_CAT_ID>45263</NORAD_CAT_ID><ELEMENT_SET_NO>999</ELEMENT_SET_NO><REV_AT_EPOCH>1980</REV_AT_EPOCH><BSTAR>.79035E-4</BSTAR><MEAN_MOTION_DOT>4.257E-5</MEAN_MOTION_DOT><MEAN_MOTION_DDOT>0</MEAN_MOTION_DDOT></tleParameters></data></segment></body></omm>
<omm id="CCSDS_OMM_VERS" version="2.0">
<header><CREATION_DATE/><ORIGINATOR/></header><body><segment><metadata><OBJECT_NAME>SORTIE</OBJECT_NAME><OBJECT_ID>1998-067RH</OBJECT_ID><CENTER_NAME>EARTH</CENTER_NAME><REF_FRAME>TEME</REF_FRAME><TIME_SYSTEM>UTC</TIME_SYSTEM><MEAN_ELEMENT_THEORY>SGP4</MEAN_ELEMENT_THEORY></metadata><data><meanElements><EPOCH>2020-06-25T14:03:48.741984</EPOCH><MEAN_MOTION>15.50567126</MEAN_MOTION><ECCENTRICITY>.0007973</ECCENTRICITY><INCLINATION>51.6431</INCLINATION><RA_OF_ASC_NODE>306.0175</RA_OF_ASC_NODE><ARG_OF_PERICENTER>39.9143</ARG_OF_PERICENTER><MEAN_ANOMALY>320.2431</MEAN_ANOMALY></meanElements><tleParameters><EPHEMERIS_TYPE>0</EPHEMERIS_TYPE><CLASSIFICATION_TYPE>U</CLASSIFICATION_TYPE><NORAD_CAT_ID>45264</NORAD_CAT_ID><ELEMENT_SET_NO>999</ELEMENT_SET_NO><REV_AT_EPOCH>1976</REV_AT_EPOCH><BSTAR>.41513E-4</BSTAR><MEAN_MOTION_DOT>1.957E-5</MEAN_MOTION_DOT><MEAN_MOTION_DDOT>0</MEAN_MOTION_DDOT></tleParameters></data></segment></body></omm>
<omm id="CCSDS_OMM_VERS" version="2.0">
<header><CREATION_DATE/><ORIGINATOR/></header><body><segment><metadata><OBJECT_NAME>ICS-EF (ISS DEB)</OBJECT_NAME><OBJECT_ID>1998-067RJ</OBJECT_ID><CENTER_NAME>EARTH</CENTER_NAME><REF_FRAME>TEME</REF_FRAME><TIME_SYSTEM>UTC</TIME_SYSTEM><MEAN_ELEMENT_THEORY>SGP4</MEAN_ELEMENT_THEORY></metadata><data><meanElements><EPOCH>2020-06-25T13:45:36.105984</EPOCH><MEAN_MOTION>15.49779615</MEAN_MOTION><ECCENTRICITY>.0005847</ECCENTRICITY><INCLINATION>51.6443</INCLINATION><RA_OF_ASC_NODE>306.6745</RA_OF_ASC_NODE><ARG_OF_PERICENTER>42.6068</ARG_OF_PERICENTER><MEAN_ANOMALY>317.5374</MEAN_ANOMALY></meanElements><tleParameters><EPHEMERIS_TYPE>0</EPHEMERIS_TYPE><CLASSIFICATION_TYPE>U</CLASSIFICATION_TYPE><NORAD_CAT_ID>45265</NORAD_CAT_ID><ELEMENT_SET_NO>999</ELEMENT_SET_NO><REV_AT_EPOCH>1943</REV_AT_EPOCH><BSTAR>.26394E-4</BSTAR><MEAN_MOTION_DOT>1.039E-5</MEAN_MOTION_DOT><MEAN_MOTION_DDOT>0</MEAN_MOTION_DDOT></tleParameters></data></segment></body></omm>
<omm id="CCSDS_OMM_VERS" version="2.0">
<header><CREATION_DATE/><ORIGINATOR/></header><body><segment><metadata><OBJECT_NAME>SOYUZ-MS 16</OBJECT_NAME><OBJECT_ID>2020-023A</OBJECT_ID><CENTER_NAME>EARTH</CENTER_NAME><REF_FRAME>TEME</REF_FRAME><TIME_SYSTEM>UTC</TIME_SYSTEM><MEAN_ELEMENT_THEORY>SGP4</MEAN_ELEMENT_THEORY></metadata><data><meanElements><EPOCH>2020-06-25T13:08:18.802176</EPOCH><MEAN_MOTION>15.49459678</MEAN_MOTION><ECCENTRICITY>.0002519</ECCENTRICITY><INCLINATION>51.6448</INCLINATION><RA_OF_ASC_NODE>307.0852</RA_OF_ASC_NODE><ARG_OF_PERICENTER>82.7533</ARG_OF_PERICENTER><MEAN_ANOMALY>354.3691</MEAN_ANOMALY></meanElements><tleParameters><EPHEMERIS_TYPE>0</EPHEMERIS_TYPE><CLASSIFICATION_TYPE>U</CLASSIFICATION_TYPE><NORAD_CAT_ID>45476</NORAD_CAT_ID><ELEMENT_SET_NO>999</ELEMENT_SET_NO><REV_AT_EPOCH>23331</REV_AT_EPOCH><BSTAR>.19557E-4</BSTAR><MEAN_MOTION_DOT>6.43E-6</MEAN_MOTION_DOT><MEAN_MOTION_DDOT>0</MEAN_MOTION_DDOT></tleParameters></data></segment></body></omm>

</ndm>
